{
  "type": "FeatureCollection",
  "features": [
    {
      "type": "Feature",
      "properties": {
        "norad_id": 66421,
        "name": "CZ-12 R/B",
        "group": "last-30-days",
        "lat": -20.619663313072788,
        "lon": 133.25659841285312,
        "alt_km": 708.5338171040739,
        "timestamp": "2025-12-04T05:42:42.157388+00:00",
        "meta_object_name": "CZ-12 R/B",
        "meta_object_id": "2025-258K",
        "meta_epoch": "2025-12-03T23:45:48.036384",
        "meta_mean_motion": 14.423167,
        "meta_eccentricity": 0.00645689,
        "meta_inclination": 49.9964,
        "meta_ra_of_asc_node": 295.913,
        "meta_arg_of_pericenter": 217.9673,
        "meta_mean_anomaly": 141.6687,
        "meta_ephemeris_type": 0,
        "meta_classification_type": "U",
        "meta_norad_cat_id": 66421,
        "meta_element_set_no": 999,
        "meta_rev_at_epoch": 345,
        "meta_bstar": 4.0078124e-05,
        "meta_mean_motion_dot": -3.4e-07,
        "meta_mean_motion_ddot": 0,
        "tle_line1": "1 66421U 25258K   25337.99013931 -.00000034  00000+0  40078-4 0  9996",
        "tle_line2": "2 66421  49.9964 295.9130 0064568 217.9673 141.6687 14.42316700  3458"
      },
      "geometry": {
        "type": "Point",
        "coordinates": [
          133.25659841285312,
          -20.619663313072788
        ]
      }
    },
    {
      "type": "Feature",
      "properties": {
        "norad_id": 66422,
        "name": "STARLINK-35617",
        "group": "last-30-days",
        "lat": -39.05824799406862,
        "lon": -22.34123154192337,
        "alt_km": 435.7893023141096,
        "timestamp": "2025-12-04T05:42:42.157399+00:00",
        "meta_object_name": "STARLINK-35617",
        "meta_object_id": "2025-259A",
        "meta_epoch": "2025-12-03T22:00:03.000096",
        "meta_mean_motion": 15.45738272,
        "meta_eccentricity": 0.00012902,
        "meta_inclination": 43.0004,
        "meta_ra_of_asc_node": 98.9709,
        "meta_arg_of_pericenter": 274.944,
        "meta_mean_anomaly": 343.4445,
        "meta_ephemeris_type": 0,
        "meta_classification_type": "U",
        "meta_norad_cat_id": 66422,
        "meta_element_set_no": 999,
        "meta_rev_at_epoch": 486,
        "meta_bstar": -0.046341778,
        "meta_mean_motion_dot": -0.02041801,
        "meta_mean_motion_ddot": 0,
        "tle_line1": "1 66422U 25259A   25337.91670139 -.02041801  00000+0 -46342-1 0  9996",
        "tle_line2": "2 66422  43.0004  98.9709 0001290 274.9440 343.4445 15.45738272  4866"
      },
      "geometry": {
        "type": "Point",
        "coordinates": [
          -22.34123154192337,
          -39.05824799406862
        ]
      }
    },
    {
      "type": "Feature",
      "properties": {
        "norad_id": 66423,
        "name": "STARLINK-35618",
        "group": "last-30-days",
        "lat": -41.29141972321694,
        "lon": -12.440722856955917,
        "alt_km": 431.6843970959362,
        "timestamp": "2025-12-04T05:42:42.157410+00:00",
        "meta_object_name": "STARLINK-35618",
        "meta_object_id": "2025-259B",
        "meta_epoch": "2025-12-03T22:00:03.000096",
        "meta_mean_motion": 15.47092663,
        "meta_eccentricity": 0.00015957,
        "meta_inclination": 43.0002,
        "meta_ra_of_asc_node": 98.9549,
        "meta_arg_of_pericenter": 270.1424,
        "meta_mean_anomaly": 354.5986,
        "meta_ephemeris_type": 0,
        "meta_classification_type": "U",
        "meta_norad_cat_id": 66423,
        "meta_element_set_no": 999,
        "meta_rev_at_epoch": 486,
        "meta_bstar": -0.045159064,
        "meta_mean_motion_dot": -0.02081178,
        "meta_mean_motion_ddot": 0,
        "tle_line1": "1 66423U 25259B   25337.91670139 -.02081178  00000+0 -45159-1 0  9993",
        "tle_line2": "2 66423  43.0002  98.9549 0001595 270.1424 354.5986 15.47092663  4867"
      },
      "geometry": {
        "type": "Point",
        "coordinates": [
          -12.440722856955917,
          -41.29141972321694
        ]
      }
    },
    {
      "type": "Feature",
      "properties": {
        "norad_id": 66424,
        "name": "STARLINK-35588",
        "group": "last-30-days",
        "lat": -42.45366428110948,
        "lon": -3.893058271708082,
        "alt_km": 427.88223017988184,
        "timestamp": "2025-12-04T05:42:42.157422+00:00",
        "meta_object_name": "STARLINK-35588",
        "meta_object_id": "2025-259C",
        "meta_epoch": "2025-12-03T22:00:03.000096",
        "meta_mean_motion": 15.48416373,
        "meta_eccentricity": 0.00014941,
        "meta_inclination": 43.0002,
        "meta_ra_of_asc_node": 98.9434,
        "meta_arg_of_pericenter": 273.7558,
        "meta_mean_anomaly": 355.9342,
        "meta_ephemeris_type": 0,
        "meta_classification_type": "U",
        "meta_norad_cat_id": 66424,
        "meta_element_set_no": 999,
        "meta_rev_at_epoch": 486,
        "meta_bstar": -0.042975214,
        "meta_mean_motion_dot": -0.02075678,
        "meta_mean_motion_ddot": 0,
        "tle_line1": "1 66424U 25259C   25337.91670139 -.02075678  00000+0 -42975-1 0  9995",
        "tle_line2": "2 66424  43.0002  98.9434 0001494 273.7558 355.9342 15.48416373  4866"
      },
      "geometry": {
        "type": "Point",
        "coordinates": [
          -3.893058271708082,
          -42.45366428110948
        ]
      }
    },
    {
      "type": "Feature",
      "properties": {
        "norad_id": 66425,
        "name": "STARLINK-35555",
        "group": "last-30-days",
        "lat": -42.9065447080973,
        "lon": 2.9511940300896353,
        "alt_km": 424.01082084779773,
        "timestamp": "2025-12-04T05:42:42.157433+00:00",
        "meta_object_name": "STARLINK-35555",
        "meta_object_id": "2025-259D",
        "meta_epoch": "2025-12-03T22:00:03.000096",
        "meta_mean_motion": 15.49756158,
        "meta_eccentricity": 0.00014306,
        "meta_inclination": 43.0004,
        "meta_ra_of_asc_node": 98.9329,
        "meta_arg_of_pericenter": 273.0427,
        "meta_mean_anomaly": 0.165,
        "meta_ephemeris_type": 0,
        "meta_classification_type": "U",
        "meta_norad_cat_id": 66425,
        "meta_element_set_no": 999,
        "meta_rev_at_epoch": 486,
        "meta_bstar": -0.041231317,
        "meta_mean_motion_dot": -0.02087146,
        "meta_mean_motion_ddot": 0,
        "tle_line1": "1 66425U 25259D   25337.91670139 -.02087146  00000+0 -41231-1 0  9993",
        "tle_line2": "2 66425  43.0004  98.9329 0001430 273.0427   0.1650 15.49756158  4860"
      },
      "geometry": {
        "type": "Point",
        "coordinates": [
          2.9511940300896353,
          -42.9065447080973
        ]
      }
    },
    {
      "type": "Feature",
      "properties": {
        "norad_id": 66426,
        "name": "STARLINK-35589",
        "group": "last-30-days",
        "lat": -42.976614037111105,
        "lon": 7.916040676838515,
        "alt_km": 420.00209224133596,
        "timestamp": "2025-12-04T05:42:42.157443+00:00",
        "meta_object_name": "STARLINK-35589",
        "meta_object_id": "2025-259E",
        "meta_epoch": "2025-12-03T22:00:03.000096",
        "meta_mean_motion": 15.50971112,
        "meta_eccentricity": 0.00015703,
        "meta_inclination": 43.0003,
        "meta_ra_of_asc_node": 98.9296,
        "meta_arg_of_pericenter": 271.2526,
        "meta_mean_anomaly": 4.1184,
        "meta_ephemeris_type": 0,
        "meta_classification_type": "U",
        "meta_norad_cat_id": 66426,
        "meta_element_set_no": 999,
        "meta_rev_at_epoch": 486,
        "meta_bstar": -0.03616798,
        "meta_mean_motion_dot": -0.01930415,
        "meta_mean_motion_ddot": 0,
        "tle_line1": "1 66426U 25259E   25337.91670139 -.01930415  00000+0 -36168-1 0  9992",
        "tle_line2": "2 66426  43.0003  98.9296 0001570 271.2526   4.1184 15.50971112  4865"
      },
      "geometry": {
        "type": "Point",
        "coordinates": [
          7.916040676838515,
          -42.976614037111105
        ]
      }
    },
    {
      "type": "Feature",
      "properties": {
        "norad_id": 66427,
        "name": "STARLINK-35611",
        "group": "last-30-days",
        "lat": -42.90968878351092,
        "lon": 11.051584367773513,
        "alt_km": 417.4314517330222,
        "timestamp": "2025-12-04T05:42:42.157453+00:00",
        "meta_object_name": "STARLINK-35611",
        "meta_object_id": "2025-259F",
        "meta_epoch": "2025-12-03T22:00:03.000096",
        "meta_mean_motion": 15.50664734,
        "meta_eccentricity": 0.00016076,
        "meta_inclination": 43.0001,
        "meta_ra_of_asc_node": 98.9234,
        "meta_arg_of_pericenter": 275.2873,
        "meta_mean_anomaly": 2.0319,
        "meta_ephemeris_type": 0,
        "meta_classification_type": "U",
        "meta_norad_cat_id": 66427,
        "meta_element_set_no": 999,
        "meta_rev_at_epoch": 486,
        "meta_bstar": -0.0034758536,
        "meta_mean_motion_dot": -0.00199753,
        "meta_mean_motion_ddot": 0,
        "tle_line1": "1 66427U 25259F   25337.91670139 -.00199753  00000+0 -34759-2 0  9999",
        "tle_line2": "2 66427  43.0001  98.9234 0001607 275.2873   2.0319 15.50664734  4862"
      },
      "geometry": {
        "type": "Point",
        "coordinates": [
          11.051584367773513,
          -42.90968878351092
        ]
      }
    }
  ]
}